[{"OBJECT_NAME":"YAOGAN-43 01B","OBJECT_ID":"2024-148B","EPOCH":"2026-03-10T00:03:57.287232","MEAN_MOTION":15.33324462,"ECCENTRICITY":0.00075223,"INCLINATION":34.9931,"RA_OF_ASC_NODE":49.0936,"ARG_OF_PERICENTER":3.3114,"MEAN_ANOMALY":356.7653,"EPHEMERIS_TYPE":0,"CLASSIFICATION_TYPE":"U","NORAD_CAT_ID":60459,"ELEMENT_SET_NO":999,"REV_AT_EPOCH":8718,"BSTAR":0.00049972886,"MEAN_MOTION_DOT":0.00016531,"MEAN_MOTION_DDOT":0},{"OBJECT_NAME":"FLOCK 4BE-7","OBJECT_ID":"2024-149P","EPOCH":"2026-03-09T18:10:07.432608","MEAN_MOTION":15.36285753,"ECCENTRICITY":0.00023454,"INCLINATION":97.3799,"RA_OF_ASC_NODE":151.2741,"ARG_OF_PERICENTER":229.8965,"MEAN_ANOMALY":130.2073,"EPHEMERIS_TYPE":0,"CLASSIFICATION_TYPE":"U","NORAD_CAT_ID":60481,"ELEMENT_SET_NO":999,"REV_AT_EPOCH":8696,"BSTAR":0.00050594522,"MEAN_MOTION_DOT":0.00017838,"MEAN_MOTION_DDOT":0}]
